#dP2021  9 22  0  0  0.00000000      96 __u+U ITR00 FIT  IAC
## 2176 259200.00000000   900.00000000 59479 0.0000000000000
+  126   C01C02C03C04C05C06C08C09C10C11C12C13C14C16C19C20C21
+        C22C23C24C25C26C27C28C29C30C32C33C34C35C36C37C38C39
+        C40C41C42C43C44C45C46C59C60E01E02E03E04E05E07E08E09
+        E11E12E13E14E15E18E19E21E24E25E26E27E30E31E33E36G01
+        G02G03G04G05G06G07G08G09G10G12G13G14G15G16G17G18G19
+        G20G21G22G23G24G25G26G27G28G29G30G31G32J01J02J03J07
+        R01R02R03R04R05R06R07R08R09R10R11R12R13R14R15R16R17
+        R18R19R20R21R22R23R24  0  0  0  0  0  0  0  0  0  0
++         0  0  0  0  0  0  0  0  0  0  0  0  0  0  0  0  0
++         0  0  0  0  0  0  0  0  0  0  0  0  0  0  0  0  0
++         0  0  0  0  0  0  0  0  0  0  0  0  0  0  0  0  0
++         0  0  0  0  0  0  0  0  0  0  0  0  0  0  0  0  0
++         0  0  0  0  0  0  0  0  0  0  0  0  0  0  0  0  0
++         0  0  0  0  0  0  0  0  0  0  0  0  0  0  0  0  0
++         0  0  0  0  0  0  0  0  0  0  0  0  0  0  0  0  0
++         0  0  0  0  0  0  0  0  0  0  0  0  0  0  0  0  0
%c M  cc GPS ccc cccc cccc cccc cccc ccccc ccccc ccccc ccccc
%c cc cc ccc ccc cccc cccc cccc cccc ccccc ccccc ccccc ccccc
%f  0.0000000  0.000000000  0.00000000000  0.000000000000000
%f  0.0000000  0.000000000  0.00000000000  0.000000000000000
%i    0    0    0    0      0      0      0      0         0
%i    0    0    0    0      0      0      0      0         0
/* INFORMATION & ANALYSIS CENTER (IAC)            RAPID DATA
/* S/V CLOCKS ARE ALIGNED TO GNSS TIME                      
/* G:C1WC2W R:C1PC2P E:C1XC5X C:C2IC6I J:C1CC2S             
/* PCV:IGS14_2163 OL/AL:FES2004  NONE     YN ORB:CoN CLK:CoN
*  2021 09 22 13 15  0.00000000
PC01 -34392.661316  24434.539701   -171.425420    -46.523199
PC02   4507.222430  41919.059433   -314.012147    313.314821
PC03 -14747.591248  39507.028572  -1220.278612   -138.901185
PC04 -39629.227892  14471.590933   -619.478207    248.738522
PC05  21898.249577  36045.383471   -180.297773    242.181628
PC06 -17372.463315  27540.391724  26681.578059    228.637675
PC08   -166.821509  24594.358651 -34219.597688   -936.307112
PC09  -7251.988742  26670.806878  32027.773798   -126.175406
PC10  -3745.345480  42197.544380   2595.891143      1.752702
PC11  19271.530305   6803.286107 -18915.458549    589.523019
PC12    785.631016  15698.898068 -23026.083071    752.932261
PC13   7121.648805  28387.869678 -30129.528350    417.679729
PC14  11864.692454  14622.127999  20627.513468    630.119878
PC16 -20155.266780  27164.933173  25156.563116   -797.211554
PC19 -15407.871259  -3750.330525 -22945.342671    958.733703
PC20  -7396.070128 -21485.225443 -16175.713509   -799.715093
PC21  -5560.708035  27348.809854   -689.434847   -932.157399
PC22 -14826.955413  16792.321878 -16664.059476   -953.040976
PC23  16681.494731  -5977.209901 -21544.004335   -963.644116
PC24  16278.773548  21337.844463   7599.117933   -967.209626
PC25  23851.056496   9792.985834 -10650.785901   -851.064488
PC26   1124.172833  19442.027473  19970.388364    846.478876
PC27   9440.272213 -17434.474268  19623.257840    601.424768
PC28  24532.665760 -12138.961593   5404.467699    -23.497852
PC29 -25198.020381    661.966125  11972.813429    450.587798
PC30 -10998.430479 -12437.465664  22422.475785    481.371629
PC32   5402.450618 -27363.388780    769.746504   -950.110746
PC33  15436.515803   3811.211232  22930.541265   -968.289936
PC34  11873.344509  12037.888354 -22212.346047   -576.342618
PC35 -24276.349041  12793.643026  -5002.362471    -80.389800
PC36 -23643.826179 -10662.934592  10332.169237   -763.852106
PC37    235.090814 -19045.254129 -20377.787386   -867.038330
PC38  -8994.440115  22177.875547 -34691.027916    177.207402
PC39 -24957.587781  27560.062938  19723.337292     33.327646
PC40 -13851.566692  37948.804947  12341.355249    201.777458
PC41  14923.371423 -16464.898397  16924.915139   -933.402712
PC42   6947.999097  22120.017730  15575.712054   -960.097135
PC43  24999.023902    -53.860952 -12424.292461   -926.093022
PC44  -8969.526905  17865.134722 -19469.759753    402.235172
PC45 -16488.716798   6072.482106  21695.176632    554.436490
PC46 -17191.903981 -21014.204013  -6519.680037     73.522911
PC59 -32342.822383  27051.699096    557.076130     -0.699405
PC60   7255.720220  41520.758964  -1453.917424     -0.764142
PE01 -13015.933837  11420.756974  24016.172015   -480.001547
PE02  12920.602419 -11585.714080 -23972.847526    248.543541
PE03  21563.326037 -19037.170472   6949.551454   -477.326760
PE04 -10223.829600  25413.242468  11220.246675   -862.130236
PE05  20442.115203  -1365.688138  21360.863748   -247.399101
PE07  -7429.600186 -16878.225998 -23151.306088   -588.246035
PE08   9848.059881 -25386.926525 -11595.119577   5933.553797
PE09   7543.541750  16629.088903  23298.345769   5523.077004
PE11  18098.665056  14680.353808 -18264.444054   5387.276842
PE12  -4254.554476  15683.061230 -24744.815321   4997.093704
PE13 -17691.910142 -14711.243971  18624.951471    421.778468
PE14 -18370.718470  23351.356353  -8425.541501  -1579.563709
PE15   4210.149060 -15616.380979  24792.508099    790.903473
PE18  21405.299960 -14327.639114  -1922.146675  -1733.965329
PE19 -22153.605074  17362.127500  -9159.578477    383.945851
PE21 -18782.999339  -9165.748165  20968.860094   -689.390430
PE24  13363.978285  25977.478700  -4706.828965  -1131.525844
PE25  18782.530625   9415.389912 -20835.068294   -547.523278
PE26 -29231.958136  -4672.976441    548.260891   1314.454520
PE27 -14003.213960 -25457.160135   5688.623949   -126.039351
PE30     -6.592953 -26212.247322 -13760.984153   2599.356214
PE31   1002.773676  26653.798173  12851.480357   -485.897527
PE33 -23578.450603   7314.742219 -16334.002028   -464.639460
PE36  29104.707169   5159.521198  -1528.250143   -265.908557
PG01  20362.897326  14133.209878 -10266.870964    560.294224
PG02   1726.474727 -15438.871220  22196.446707   -633.700998
PG03  12348.919620  20485.710402  11553.944244   -298.354528
PG04  12461.624580   9227.208149  21573.850048   -204.234779
PG05  -5843.621937 -25800.999371    791.020002    -55.247864
PG06  15699.692153  -8568.283456  19712.238609     79.450384
PG07  25847.370583   5847.817302  -3803.131296    249.796320
PG08   2279.752378  16950.383891 -20246.707489    -37.410117
PG09  20137.066548  -2079.986529  17138.285818   -361.295997
PG10 -12886.291120   9170.729430 -21171.636567   -208.565206
PG12 -10360.877964 -21915.319880  10757.610949   -101.028880
PG13   6638.280273 -18976.258916 -17425.449475    189.094320
PG14  13490.538545  -9213.419374 -20932.431836     -3.971059
PG15  -5161.158342 -16884.837171 -20142.265515   -119.273658
PG16   -274.826888  25835.877327   4745.526721   -394.868374
PG17  22472.046004 -12628.722295  -5984.226106    508.426938
PG18 -25480.180033  -4393.393600  -6297.934601    319.403846
PG19  20573.792597 -16491.372733   2077.301331     56.277326
PG20    667.928114 -23733.078875  12141.491768    519.009418
PG21  14753.455130  15060.910254 -15785.685063    144.013846
PG22  10844.166143  24049.282795   4096.716589   -507.035358
PG23 -15838.530631  -3671.152865 -21040.162448     54.267132
PG24 -17370.830519 -14979.621382 -13991.784101    240.023509
PG25 -15190.209399 -13015.910220  17339.422080    212.478361
PG26  -6940.998291  19843.001833  16004.672693    136.997810
PG27  -7789.912649  20500.429376 -14893.361455   -196.410374
PG28  10446.013929 -16200.627877 -17813.579649    496.360462
PG29 -18454.716314  -1773.370401  18999.568299   -415.521836
PG30  22279.019398  -3198.885683 -14213.673333   -475.390575
PG31 -14402.780288   9889.678071  20035.890321   -141.106233
PG32 -20963.196924  15764.304362  -3405.725468     -2.849930
PJ01 -24688.905643  32256.457713  -6726.934449    130.507422
PJ02 -25366.599120  23289.903614  29287.564157     -2.694598
PJ03 -35362.700870  19104.604422  -8195.817948     -2.437890
PJ07 -25381.189908  33677.841821     34.058253      0.029534
PR01   7443.600150 -24247.625977  -2659.540585     85.670919
PR02  -3789.140501 -15710.783060 -19722.440631    494.160539
PR03 -12044.353999   1639.617937 -22380.502037     43.408247
PR04 -13263.566094  17840.038656 -12478.387464    105.960900
PR05  -7279.138327  24039.566438   4376.275977     79.398791
PR06   5016.271840  14744.600104  20177.441644     -5.276944
PR07  12291.214860  -2426.790519  22258.199899    -41.062716
PR08  13320.284238 -17864.986080  12485.522589    -61.079051
PR09  16008.715607  19894.306567    824.948512     14.524449
PR10  17910.467651  10562.577566 -14726.903744    -75.260385
PR11   9580.620633  -5473.438462 -22982.926980     49.046025
PR12  -4638.176679 -18503.623175 -16910.743917    264.070542
PR13 -15627.965174 -20087.700313  -1701.145168    -61.013585
PR14 -17667.677199  -9668.725058  15661.038718     69.078020
PR15  -9307.386991   6014.185209  23001.696999    101.313485
PR16   5825.595848  18865.384316  16058.061787    -21.863060
PR17 -24445.845496    293.956249   7372.902008    460.640621
PR18 -22396.869146   7542.106209  -9534.695337     91.302110
PR19  -9824.772605  10556.744532 -21045.982560   -160.328309
PR20  12003.603098   7988.433869 -21044.656409    -56.317267
PR21  24734.823122   -842.612874  -6099.091743   -241.203397
PR22  21994.553924  -7732.420717  10434.098349   -134.668169
PR23   2566.298723 -10709.534634  22997.966560    -14.090773
PR24 -12885.466438  -7952.485064  20549.870457     59.672233
EOF
